COMMENT,ORIGINATOR,NORAD_CAT_ID,OBJECT_NAME,OBJECT_TYPE,CLASSIFICATION_TYPE,INTLDES,EPOCH,EPOCH_MICROSECONDS,MEAN_MOTION,ECCENTRICITY,INCLINATION,RA_OF_ASC_NODE,ARG_OF_PERICENTER,MEAN_ANOMALY,EPHEMERIS_TYPE,ELEMENT_SET_NO,REV_AT_EPOCH,BSTAR,MEAN_MOTION_DOT,MEAN_MOTION_DDOT,FILE,TLE_LINE0,TLE_LINE1,TLE_LINE2,OBJECT_ID,OBJECT_NUMBER,SEMIMAJOR_AXIS,PERIOD,APOGEE,PERIGEE,DECAYED,date
GENERATED VIA SPACETRACK.ORG API,18 SPCS,48894,SPACEBEE-107,PAYLOAD,U,21059R,2023/4/2 19:17,207328,15.27626745,0.0007992,97.5854,228.6856,181.1681,178.954,0,999,9789,0.0014269,0.00038654,0,3878236,0 SPACEBEE-107,1 48894U 21059R   23092.80349777  .00038654  00000-0  14269-2 0  9991,2 48894  97.5854 228.6856 0007992 181.1681 178.9540 15.27626745 97895,2021-059R,48894,6861.046,94.264,488.394,477.428,0,
GENERATED VIA SPACETRACK.ORG API,18 SPCS,48894,SPACEBEE-107,PAYLOAD,U,21059R,2023/4/2 20:51,641472,15.27632393,0.0007985,97.5853,228.7521,181.0814,179.0408,0,999,9790,0.0014145,0.00038323,0,3878419,0 SPACEBEE-107,1 48894U 21059R   23092.86900048  .00038323  00000-0  14145-2 0  9997,2 48894  97.5853 228.7521 0007985 181.0814 179.0408 15.27632393 97906,2021-059R,48894,6861.029,94.264,488.373,477.416,0,
GENERATED VIA SPACETRACK.ORG API,18 SPCS,48894,SPACEBEE-107,PAYLOAD,U,21059R,2023/4/3 14:08,189312,15.27692643,0.0008073,97.5855,229.4852,178.6867,181.4394,0,999,9801,0.0014913,0.00040494,0,3879059,0 SPACEBEE-107,1 48894U 21059R   23093.58951608  .00040494  00000-0  14913-2 0  9990,2 48894  97.5855 229.4852 0008073 178.6867 181.4394 15.27692643 98010,2021-059R,48894,6860.849,94.26,488.253,477.175,0,
GENERATED VIA SPACETRACK.ORG API,18 SPCS,48894,SPACEBEE-107,PAYLOAD,U,21059R,2023/4/4 9:00,95456,15.2776601,0.0008048,97.5858,230.2846,175.7462,184.3847,0,999,9813,0.0016361,0.00044556,0,3879799,0 SPACEBEE-107,1 48894U 21059R   23094.37549879  .00044556  00000-0  16361-2 0  9993,2 48894  97.5858 230.2846 0008048 175.7462 184.3847 15.27766010 98135,2021-059R,48894,6860.629,94.255,488.016,476.973,0,
GENERATED VIA SPACETRACK.ORG API,18 SPCS,48894,SPACEBEE-107,PAYLOAD,U,21059R,2023/4/4 9:00,95456,15.2776601,0.0008048,97.5858,230.2846,175.7462,184.3847,0,999,9813,0.0016361,0.00044556,0,3879974,0 SPACEBEE-107,1 48894U 21059R   23094.37549879  .00044556  00000-0  16361-2 0  9993,2 48894  97.5858 230.2846 0008048 175.7462 184.3847 15.27766010 98135,2021-059R,48894,6860.629,94.255,488.016,476.973,0,
GENERATED VIA SPACETRACK.ORG API,18 SPCS,48894,SPACEBEE-107,PAYLOAD,U,21059R,2023/4/4 21:35,74080,15.27805399,0.0008081,97.5862,230.8177,173.5636,186.5708,0,999,9821,0.0013735,0.00037402,0,3880211,0 SPACEBEE-107,1 48894U 21059R   23094.89946845  .00037402  00000-0  13735-2 0  9998,2 48894  97.5862 230.8177 0008081 173.5636 186.5708 15.27805399 98212,2021-059R,48894,6860.511,94.253,487.92,476.832,0,
GENERATED VIA SPACETRACK.ORG API,18 SPCS,48894,SPACEBEE-107,PAYLOAD,U,21059R,2023/4/5 8:35,130400,15.27844799,0.0008078,97.5861,231.2843,172.3321,187.8043,0,999,9828,0.0015045,0.00041045,0,3880853,0 SPACEBEE-107,1 48894U 21059R   23095.35792975  .00041045  00000-0  15045-2 0  9997,2 48894  97.5861 231.2843 0008078 172.3321 187.8043 15.27844799 98280,2021-059R,48894,6860.393,94.25,487.8,476.716,0,
GENERATED VIA SPACETRACK.ORG API,18 SPCS,48894,SPACEBEE-107,PAYLOAD,U,21059R,2023/4/5 8:35,130400,15.27844799,0.0008078,97.5861,231.2843,172.3321,187.8043,0,999,9828,0.0015045,0.00041045,0,3881007,0 SPACEBEE-107,1 48894U 21059R   23095.35792975  .00041045  00000-0  15045-2 0  9997,2 48894  97.5861 231.2843 0008078 172.3321 187.8043 15.27844799 98280,2021-059R,48894,6860.393,94.25,487.8,476.716,0,
GENERATED VIA SPACETRACK.ORG API,18 SPCS,48894,SPACEBEE-107,PAYLOAD,U,21059R,2023/4/5 21:09,768448,15.27885435,0.0008058,97.5864,231.8176,170.863,189.2757,0,999,9836,0.0014086,0.00038458,0,3881153,0 SPACEBEE-107,1 48894U 21059R   23095.88187232  .00038458  00000-0  14086-2 0  9997,2 48894  97.5864 231.8176 0008058 170.8630 189.2757 15.27885435 98361,2021-059R,48894,6860.272,94.248,487.665,476.609,0,
GENERATED VIA SPACETRACK.ORG API,18 SPCS,48894,SPACEBEE-107,PAYLOAD,U,21059R,2023/4/6 8:10,864352,15.27919653,0.0007957,97.5864,232.284,169.7291,190.4112,0,999,9843,0.001387,0.00037903,0,3881771,0 SPACEBEE-107,1 48894U 21059R   23096.34031093  .00037903  00000-0  13870-2 0  9996,2 48894  97.5864 232.2840 0007957 169.7291 190.4112 15.27919653 98438,2021-059R,48894,6860.169,94.246,487.493,476.576,0,
GENERATED VIA SPACETRACK.ORG API,18 SPCS,48894,SPACEBEE-107,PAYLOAD,U,21059R,2023/4/7 6:10,243840,15.279927,0.0007871,97.5866,233.2172,166.6882,193.4566,0,999,9857,0.0014633,0.00040092,0,3882156,0 SPACEBEE-107,1 48894U 21059R   23097.25715560  .00040092  00000-0  14633-2 0  9996,2 48894  97.5866 233.2172 0007871 166.6882 193.4566 15.27992700 98571,2021-059R,48894,6859.951,94.241,487.215,476.416,0,
GENERATED VIA SPACETRACK.ORG API,18 SPCS,48894,SPACEBEE-107,PAYLOAD,U,21059R,2023/4/7 7:44,323232,15.279989,0.0007884,97.5868,233.2838,166.1687,193.977,0,999,9858,0.0014742,0.00040401,0,3882626,0 SPACEBEE-107,1 48894U 21059R   23097.32264263  .00040401  00000-0  14742-2 0  9998,2 48894  97.5868 233.2838 0007884 166.1687 193.9770 15.27998900 98585,2021-059R,48894,6859.932,94.241,487.205,476.389,0,
GENERATED VIA SPACETRACK.ORG API,18 SPCS,48894,SPACEBEE-107,PAYLOAD,U,21059R,2023/4/8 8:53,254656,15.28079475,0.0007948,97.5875,234.3508,161.9798,198.1724,0,999,9874,0.0013727,0.00037693,0,3883332,0 SPACEBEE-107,1 48894U 21059R   23098.37040804  .00037693  00000-0  13727-2 0  9998,2 48894  97.5875 234.3508 0007948 161.9798 198.1724 15.28079475 98748,2021-059R,48894,6859.691,94.236,487.008,476.104,0,
GENERATED VIA SPACETRACK.ORG API,18 SPCS,48894,SPACEBEE-107,PAYLOAD,U,21059R,2023/4/8 8:53,254656,15.28079475,0.0007948,97.5875,234.3508,161.9798,198.1724,0,999,9874,0.0013727,0.00037693,0,3883527,0 SPACEBEE-107,1 48894U 21059R   23098.37040804  .00037693  00000-0  13727-2 0  9998,2 48894  97.5875 234.3508 0007948 161.9798 198.1724 15.28079475 98748,2021-059R,48894,6859.691,94.236,487.008,476.104,0,
GENERATED VIA SPACETRACK.ORG API,18 SPCS,48894,SPACEBEE-107,PAYLOAD,U,21059R,2023/4/9 8:27,41568,15.28151131,0.0007939,97.5876,235.3509,159.173,200.9834,0,999,9889,0.0013427,0.00036944,0,3884332,0 SPACEBEE-107,1 48894U 21059R   23099.35263937  .00036944  00000-0  13427-2 0  9996,2 48894  97.5876 235.3509 0007939 159.1730 200.9834 15.28151131 98896,2021-059R,48894,6859.476,94.232,486.787,475.896,0,
GENERATED VIA SPACETRACK.ORG API,18 SPCS,48894,SPACEBEE-107,PAYLOAD,U,21059R,2023/4/9 22:36,46784,15.28192135,0.0007903,97.5876,235.9509,157.5735,202.5851,0,999,9898,0.001267,0.00034891,0,3884762,0 SPACEBEE-107,1 48894U 21059R   23099.94195656  .00034891  00000-0  12670-2 0  9991,2 48894  97.5876 235.9509 0007903 157.5735 202.5851 15.28192135 98986,2021-059R,48894,6859.354,94.229,486.64,475.798,0,
GENERATED VIA SPACETRACK.ORG API,18 SPCS,48894,SPACEBEE-107,PAYLOAD,U,21059R,2023/4/10 8:02,923200,15.28222924,0.0007869,97.5876,236.351,156.5562,203.6037,0,999,9904,0.0013954,0.00038489,0,3885195,0 SPACEBEE-107,1 48894U 21059R   23100.33482550  .00038489  00000-0  13954-2 0  9992,2 48894  97.5876 236.3510 0007869 156.5562 203.6037 15.28222924 99047,2021-059R,48894,6859.262,94.227,486.524,475.729,0,
GENERATED VIA SPACETRACK.ORG API,18 SPCS,48894,SPACEBEE-107,PAYLOAD,U,21059R,2023/4/10 22:10,320000,15.282745,0.000788,97.5877,236.9511,154.3807,205.7824,0,999,9913,0.0015078,0.00041679,0,3885440,0 SPACEBEE-107,1 48894U 21059R   23100.92411250  .00041679  00000-0  15078-2 0  9990,2 48894  97.5877 236.9511 0007880 154.3807 205.7824 15.28274500 99130,2021-059R,48894,6859.107,94.224,486.377,475.567,0,
GENERATED VIA SPACETRACK.ORG API,18 SPCS,48894,SPACEBEE-107,PAYLOAD,U,21059R,2023/4/11 7:36,401024,15.28301083,0.0007841,97.5878,237.3512,153.0114,207.1534,0,999,9919,0.0012637,0.00034915,0,3885783,0 SPACEBEE-107,1 48894U 21059R   23101.31696066  .00034915  00000-0  12637-2 0  9997,2 48894  97.5878 237.3512 0007841 153.0114 207.1534 15.28301083 99198,2021-059R,48894,6859.028,94.222,486.271,475.515,0,
GENERATED VIA SPACETRACK.ORG API,18 SPCS,48894,SPACEBEE-107,PAYLOAD,U,21059R,2023/4/12 8:44,184992,15.2838457,0.0007805,97.588,238.418,149.3478,210.8219,0,999,9935,0.0012928,0.00035816,0,3886224,0 SPACEBEE-107,1 48894U 21059R   23102.36451603  .00035816  00000-0  12928-2 0  9993,2 48894  97.5880 238.4180 0007805 149.3478 210.8219 15.28384570 99356,2021-059R,48894,6858.778,94.217,485.996,475.29,0,
GENERATED VIA SPACETRACK.ORG API,18 SPCS,48894,SPACEBEE-107,PAYLOAD,U,21059R,2023/4/12 8:44,184992,15.2838457,0.0007805,97.588,238.418,149.3478,210.8219,0,999,9935,0.0012928,0.00035816,0,3886349,0 SPACEBEE-107,1 48894U 21059R   23102.36451603  .00035816  00000-0  12928-2 0  9993,2 48894  97.5880 238.4180 0007805 149.3478 210.8219 15.28384570 99356,2021-059R,48894,6858.778,94.217,485.996,475.29,0,
GENERATED VIA SPACETRACK.ORG API,18 SPCS,48894,SPACEBEE-107,PAYLOAD,U,21059R,2023/4/13 8:19,796448,15.28462502,0.0007771,97.5877,239.419,146.663,213.51,0,999,9950,0.0013907,0.0003864,0,3886564,0 SPACEBEE-107,1 48894U 21059R   23103.34654857  .00038640  00000-0  13907-2 0  9994,2 48894  97.5877 239.4190 0007771 146.6630 213.5100 15.28462502 99504,2021-059R,48894,6858.545,94.212,485.74,475.08,0,
GENERATED VIA SPACETRACK.ORG API,18 SPCS,48894,SPACEBEE-107,PAYLOAD,U,21059R,2023/4/13 14:36,122528,15.28482086,0.0007762,97.5875,239.6858,145.8214,214.3527,0,999,9954,0.0013891,0.00038618,0,3886708,0 SPACEBEE-107,1 48894U 21059R   23103.60841577  .00038618  00000-0  13891-2 0  9997,2 48894  97.5875 239.6858 0007762 145.8214 214.3527 15.28482086 99549,2021-059R,48894,6858.486,94.211,485.675,475.028,0,
